H1 CPF  2  SHA 2024 03 14 03   74  1 hy2b             NONE
H2  1808101 2208    43655 2024  3 14  0  0  0 2024  3 18 11 59  0    60 1 1  0 0 0 1
H9
10 0 60385  72000.000000  0      -5459159.512       3568074.815      -3390226.322
10 0 60385  72060.000000  0      -5222287.479       3542694.566      -3769298.426
10 0 60385  72120.000000  0      -4966946.908       3502436.947      -4134727.292
10 0 60385  72180.000000  0      -4694192.459       3447294.785      -4485196.591
10 0 60385  72240.000000  0      -4405140.507       3377323.788      -4819445.101
10 0 60385  72300.000000  0      -4100964.123       3292642.679      -5136271.505
10 0 60385  72360.000000  0      -3782888.487       3193433.192      -5434538.179
10 0 60385  72420.000000  0      -3452185.563       3079939.668      -5713175.415
10 0 60385  72480.000000  0      -3110169.046       2952468.497      -5971184.963
10 0 60385  72540.000000  0      -2758189.242       2811387.352      -6207643.312
10 0 60385  72600.000000  0      -2397627.280       2657123.939      -6421705.094
10 0 60385  72660.000000  0      -2029890.090       2490164.819      -6612605.593
10 0 60385  72720.000000  0      -1656404.438       2311053.626      -6779663.522
10 0 60385  72780.000000  0      -1278611.893       2120389.466      -6922283.005
10 0 60385  72840.000000  0       -897962.841       1918824.674      -7039955.735
10 0 60385  72900.000000  0       -515911.421       1707062.776      -7132262.442
10 0 60385  72960.000000  0       -133909.683       1485855.841      -7198874.370
10 0 60385  73020.000000  0        246597.655       1256001.914      -7239554.279
10 0 60385  73080.000000  0        624178.466       1018342.263      -7254157.251
10 0 60385  73140.000000  0        997418.885        773758.117      -7242631.195
10 0 60385  73200.000000  0       1364928.110        523167.707      -7205016.994
10 0 60385  73260.000000  0       1725343.958        267522.575      -7141448.350
10 0 60385  73320.000000  0       2077337.379          7804.334      -7052151.387
10 0 60385  73380.000000  0       2419617.751       -254979.342      -6937443.860
10 0 60385  73440.000000  0       2750937.148       -519798.217      -6797734.255
10 0 60385  73500.000000  0       3070095.260       -785603.762      -6633520.331
10 0 60385  73560.000000  0       3375943.549      -1051333.072      -6445387.543
10 0 60385  73620.000000  0       3667389.291      -1315912.938      -6234007.235
10 0 60385  73680.000000  0       3943399.851      -1578264.364      -6000134.293
10 0 60385  73740.000000  0       4203006.116      -1837306.648      -5744604.878
10 0 60385  73800.000000  0       4445306.318      -2091962.077      -5468333.385
10 0 60385  73860.000000  0       4669469.015      -2341160.118      -5172309.633
10 0 60385  73920.000000  0       4874736.350      -2583842.176      -4857595.184
10 0 60385  73980.000000  0       5060426.491      -2818965.772      -4525320.093
10 0 60385  74040.000000  0       5225936.305      -3045509.301      -4176678.632
10 0 60385  74100.000000  0       5370743.359      -3262476.316      -3812925.333
10 0 60385  74160.000000  0       5494407.708      -3468899.851      -3435370.698
10 0 60385  74220.000000  0       5596573.532      -3663846.933      -3045376.215
10 0 60385  74280.000000  0       5676970.139      -3846422.567      -2644349.888
10 0 60385  74340.000000  0       5735412.880      -4015774.038      -2233740.746
10 0 60385  74400.000000  0       5771803.528      -4171094.670      -1815034.043
10 0 60385  74460.000000  0       5786130.441      -4311627.813      -1389745.384
10 0 60385  74520.000000  0       5778468.265      -4436670.289       -959415.611
10 0 60385  74580.000000  0       5748977.331      -4545575.943       -525604.730
10 0 60385  74640.000000  0       5697902.654      -4637758.795        -89886.271
10 0 60385  74700.000000  0       5625572.632      -4712695.948        346158.343
10 0 60385  74760.000000  0       5532397.275      -4769930.384        780946.166
10 0 60385  74820.000000  0       5418866.237      -4809073.290       1212898.156
10 0 60385  74880.000000  0       5285546.337      -4829806.259       1640445.539
10 0 60385  74940.000000  0       5133078.975      -4831883.060       2062035.218
10 0 60385  75000.000000  0       4962176.985      -4815131.201       2476136.008
10 0 60385  75060.000000  0       4773621.510      -4779453.126       2881243.880
10 0 60385  75120.000000  0       4568258.299      -4724827.116       3275887.932
10 0 60385  75180.000000  0       4346993.937      -4651307.860       3658635.683
10 0 60385  75240.000000  0       4110791.927      -4559026.764       4028098.158
10 0 60385  75300.000000  0       3860668.160      -4448191.779       4382935.422
10 0 60385  75360.000000  0       3597686.769      -4319087.116       4721861.000
10 0 60385  75420.000000  0       3322955.199      -4172072.371       5043646.986
10 0 60385  75480.000000  0       3037619.790      -4007581.641       5347128.038
10 0 60385  75540.000000  0       2742860.581      -3826122.023       5631205.958
10 0 60385  75600.000000  0       2439886.682      -3628272.140       5894853.259
10 0 60385  75660.000000  0       2129930.932      -3414680.023       6137117.086
10 0 60385  75720.000000  0       1814244.938      -3186060.947       6357122.408
10 0 60385  75780.000000  0       1494094.072      -2943195.026       6554075.000
10 0 60385  75840.000000  0       1170752.071      -2686924.250       6727264.375
10 0 60385  75900.000000  0        845496.287      -2418149.756       6876066.011
10 0 60385  75960.000000  0        519602.225      -2137828.270       6999943.674
10 0 60385  76020.000000  0        194338.948      -1846968.983       7098451.056
10 0 60385  76080.000000  0       -129036.279      -1546629.515       7171233.454
10 0 60385  76140.000000  0       -449282.423      -1237912.393       7218028.839
10 0 60385  76200.000000  0       -765179.808       -921960.640       7238668.837
10 0 60385  76260.000000  0      -1075534.573       -599953.684       7233079.237
10 0 60385  76320.000000  0      -1379183.083       -273103.058       7201280.270
10 0 60385  76380.000000  0      -1674996.586         57352.465       7143386.517
10 0 60385  76440.000000  0      -1961885.082        390151.214       7059606.553
10 0 60385  76500.000000  0      -2238801.686        724013.792       6950242.183
10 0 60385  76560.000000  0      -2504746.158       1057647.627       6815687.505
10 0 60385  76620.000000  0      -2758768.872       1389752.353       6656427.444
10 0 60385  76680.000000  0      -2999973.919       1719024.469       6473036.281
10 0 60385  76740.000000  0      -3227522.643       2044162.863       6266175.521
10 0 60385  76800.000000  0      -3440636.471       2363873.778       6036591.715
10 0 60385  76860.000000  0      -3638599.611       2676875.914       5785113.979
10 0 60385  76920.000000  0      -3820761.743       2981905.904       5512650.878
10 0 60385  76980.000000  0      -3986540.032       3277723.133       5220187.530
10 0 60385  77040.000000  0      -4135421.285       3563115.189       4908781.835
10 0 60385  77100.000000  0      -4266963.439       3836902.586       4579561.063
10 0 60385  77160.000000  0      -4380797.103       4097944.043       4233717.482
10 0 60385  77220.000000  0      -4476626.497       4345141.042       3872504.456
10 0 60385  77280.000000  0      -4554230.329       4577442.796       3497231.587
10 0 60385  77340.000000  0      -4613462.194       4793850.716       3109260.060
10 0 60385  77400.000000  0      -4654250.678       4993422.676       2709997.875
10 0 60385  77460.000000  0      -4676599.228       5175277.402       2300894.261
10 0 60385  77520.000000  0      -4680585.596       5338598.182       1883434.764
10 0 60385  77580.000000  0      -4666361.058       5482636.730       1459135.342
10 0 60385  77640.000000  0      -4634149.285       5606716.443       1029537.169
10 0 60385  77700.000000  0      -4584244.907       5710235.685        596200.466
10 0 60385  77760.000000  0      -4517011.830       5792670.516        160699.134
10 0 60385  77820.000000  0      -4432881.158       5853577.319       -275385.552
10 0 60385  77880.000000  0      -4332348.879       5892594.930       -710470.727
10 0 60385  77940.000000  0      -4215973.321       5909446.431      -1142977.636
10 0 60385  78000.000000  0      -4084372.183       5903940.635      -1571338.020
10 0 60385  78060.000000  0      -3938219.578       5875973.157      -1993999.375
10 0 60385  78120.000000  0      -3778242.537       5825527.159      -2409431.244
10 0 60385  78180.000000  0      -3605217.674       5752673.752      -2816130.328
10 0 60385  78240.000000  0      -3419967.281       5657571.909      -3212626.502
10 0 60385  78300.000000  0      -3223355.672       5540468.178      -3597487.672
10 0 60385  78360.000000  0      -3016285.007       5401695.859      -3969325.344
10 0 60385  78420.000000  0      -2799691.244       5241673.950      -4326799.406
10 0 60385  78480.000000  0      -2574540.002       5060905.789      -4668622.769
10 0 60385  78540.000000  0      -2341822.071       4859977.145      -4993566.196
10 0 60385  78600.000000  0      -2102549.340       4639554.379      -5300462.195
10 0 60385  78660.000000  0      -1857750.149       4400381.836      -5588209.475
10 0 60385  78720.000000  0      -1608465.191       4143279.447      -5855776.369
10 0 60385  78780.000000  0      -1355742.808       3869139.467      -6102204.735
10 0 60385  78840.000000  0      -1100634.937       3578923.552      -6326612.869
10 0 60385  78900.000000  0       -844192.475       3273658.943      -6528198.742
10 0 60385  78960.000000  0       -587461.143       2954434.866      -6706242.514
10 0 60385  79020.000000  0       -331477.372       2622398.697      -6860108.838
10 0 60385  79080.000000  0        -77263.954       2278751.494      -6989249.100
10 0 60385  79140.000000  0        174173.677       1924744.005      -7093203.048
99